start=new Date('2022-12-28T00:00:00.000Z').valueOf();
sats=[{"LAUNCH_DATE":"2021-03-14","BSTAR":"0.00062260000000","INCLINATION":"53.0540","FILE":"3724149","MEAN_ELEMENT_THEORY":"SGP4","DECAY_DATE":null,"CLASSIFICATION_TYPE":"U","ARG_OF_PERICENTER":"51.6317","NORAD_CAT_ID":"47891","MEAN_MOTION_DDOT":"0.0000000000000","MEAN_MOTION_DOT":"0.00009010","SEMIMAJOR_AXIS":"6925.280","OBJECT_NAME":"STARLINK-2351","EPOCH":"2022-12-27T18:30:39.856032","TLE_LINE2":"2 47891  53.0540 124.6137 0000583  51.6317 308.4724 15.06422517100182","SITE":"AFETR","ELEMENT_SET_NO":"999","OBJECT_ID":"2021-021AH","RA_OF_ASC_NODE":"124.6137","ECCENTRICITY":"0.00005830","PERIOD":"95.591","RCS_SIZE":"LARGE","APOAPSIS":"547.548","PERIAPSIS":"546.741","COUNTRY_CODE":"US","TLE_LINE1":"1 47891U 21021AH  22361.77129463  .00009010  00000-0  62260-3 0  9997","GP_ID":"221620830","TIME_SYSTEM":"UTC","OBJECT_TYPE":"PAYLOAD","REF_FRAME":"TEME","MEAN_ANOMALY":"308.4724","EPHEMERIS_TYPE":"0","MEAN_MOTION":"15.06422517","REV_AT_EPOCH":"10018","CENTER_NAME":"EARTH"},{"MEAN_MOTION_DOT":"0.00003412","MEAN_MOTION_DDOT":"0.0000000000000","SEMIMAJOR_AXIS":"6893.291","OBJECT_NAME":"STARLINK-2352","ELEMENT_SET_NO":"999","EPOCH":"2022-12-27T16:26:49.809408","TLE_LINE2":"2 47892  53.0551 102.2918 0003376  20.3055 339.8072 15.16920569100331","SITE":"AFETR","OBJECT_ID":"2021-021AJ","RA_OF_ASC_NODE":"102.2918","LAUNCH_DATE":"2021-03-14","INCLINATION":"53.0551","BSTAR":"0.00018659000000","FILE":"3724149","DECAY_DATE":null,"MEAN_ELEMENT_THEORY":"SGP4","ARG_OF_PERICENTER":"20.3055","CLASSIFICATION_TYPE":"U","NORAD_CAT_ID":"47892","PERIAPSIS":"512.829","COUNTRY_CODE":"US","TLE_LINE1":"1 47892U 21021AJ  22361.68529872  .00003412  00000-0  18659-3 0  9999","TIME_SYSTEM":"UTC","GP_ID":"221621080","OBJECT_TYPE":"PAYLOAD","REF_FRAME":"TEME","EPHEMERIS_TYPE":"0","MEAN_ANOMALY":"339.8072","REV_AT_EPOCH":"10033","MEAN_MOTION":"15.16920569","CENTER_NAME":"EARTH","ECCENTRICITY":"0.00033760","PERIOD":"94.929","RCS_SIZE":"LARGE","APOAPSIS":"517.483"},{"CLASSIFICATION_TYPE":"U","ARG_OF_PERICENTER":"48.0836","FILE":"3724149","MEAN_ELEMENT_THEORY":"SGP4","DECAY_DATE":null,"NORAD_CAT_ID":"47894","BSTAR":"0.00012476000000","INCLINATION":"53.0537","LAUNCH_DATE":"2021-03-14","TLE_LINE2":"2 47894  53.0537 114.8099 0001724  48.0836 312.0300 15.06410586100109","EPOCH":"2022-12-27T17:28:17.996448","SITE":"AFETR","ELEMENT_SET_NO":"999","RA_OF_ASC_NODE":"114.8099","OBJECT_ID":"2021-021AL","MEAN_MOTION_DDOT":"0.0000000000000","MEAN_MOTION_DOT":"0.00001578","SEMIMAJOR_AXIS":"6925.316","OBJECT_NAME":"STARLINK-2354","APOAPSIS":"548.375","ECCENTRICITY":"0.00017240","RCS_SIZE":"LARGE","PERIOD":"95.591","MEAN_ANOMALY":"312.0300","EPHEMERIS_TYPE":"0","REF_FRAME":"TEME","CENTER_NAME":"EARTH","REV_AT_EPOCH":"10010","MEAN_MOTION":"15.06410586","PERIAPSIS":"545.987","COUNTRY_CODE":"US","TIME_SYSTEM":"UTC","GP_ID":"221621832","OBJECT_TYPE":"PAYLOAD","TLE_LINE1":"1 47894U 21021AL  22361.72798607  .00001578  00000-0  12476-3 0  9992"},{"MEAN_MOTION":"15.06402148","REV_AT_EPOCH":"9965","CENTER_NAME":"EARTH","REF_FRAME":"TEME","MEAN_ANOMALY":"269.7096","EPHEMERIS_TYPE":"0","TLE_LINE1":"1 47895U 21021AM  22361.60634732  .00003199  00000-0  23353-3 0  9995","GP_ID":"221594956","OBJECT_TYPE":"PAYLOAD","TIME_SYSTEM":"UTC","COUNTRY_CODE":"US","PERIAPSIS":"546.231","APOAPSIS":"548.183","PERIOD":"95.592","RCS_SIZE":"MEDIUM","ECCENTRICITY":"0.00014090","OBJECT_ID":"2021-021AM","RA_OF_ASC_NODE":"115.3400","TLE_LINE2":"2 47895  53.0569 115.3400 0001409  90.4055 269.7096 15.06402148 99653","EPOCH":"2022-12-27T14:33:08.408448","SITE":"AFETR","ELEMENT_SET_NO":"999","OBJECT_NAME":"STARLINK-2355","SEMIMAJOR_AXIS":"6925.342","MEAN_MOTION_DDOT":"0.0000000000000","MEAN_MOTION_DOT":"0.00003199","NORAD_CAT_ID":"47895","FILE":"3723959","MEAN_ELEMENT_THEORY":"SGP4","DECAY_DATE":null,"CLASSIFICATION_TYPE":"U","ARG_OF_PERICENTER":"90.4055","LAUNCH_DATE":"2021-03-14","INCLINATION":"53.0569","BSTAR":"0.00023353000000"},{"CENTER_NAME":"EARTH","REV_AT_EPOCH":"9990","MEAN_MOTION":"15.06399981","EPHEMERIS_TYPE":"0","MEAN_ANOMALY":"290.6970","REF_FRAME":"TEME","OBJECT_TYPE":"PAYLOAD","GP_ID":"221620330","TIME_SYSTEM":"UTC","TLE_LINE1":"1 47896U 21021AN  22361.79848308  .00002624  00000-0  19498-3 0  9999","PERIAPSIS":"546.232","COUNTRY_CODE":"US","APOAPSIS":"548.196","RCS_SIZE":"LARGE","PERIOD":"95.592","ECCENTRICITY":"0.00014180","RA_OF_ASC_NODE":"129.4888","OBJECT_ID":"2021-021AN","ELEMENT_SET_NO":"999","TLE_LINE2":"2 47896  53.0549 129.4888 0001418  69.4171 290.6970 15.06399981 99905","SITE":"AFETR","EPOCH":"2022-12-27T19:09:48.938112","SEMIMAJOR_AXIS":"6925.349","OBJECT_NAME":"STARLINK-2356","MEAN_MOTION_DOT":"0.00002624","MEAN_MOTION_DDOT":"0.0000000000000","NORAD_CAT_ID":"47896","ARG_OF_PERICENTER":"69.4171","CLASSIFICATION_TYPE":"U","FILE":"3724149","DECAY_DATE":null,"MEAN_ELEMENT_THEORY":"SGP4","INCLINATION":"53.0549","BSTAR":"0.00019498000000","LAUNCH_DATE":"2021-03-14"},{"GP_ID":"221620580","OBJECT_TYPE":"PAYLOAD","TIME_SYSTEM":"UTC","TLE_LINE1":"1 47897U 21021AP  22361.67175252  .00002982  00000-0  21898-3 0  9992","PERIAPSIS":"546.299","COUNTRY_CODE":"US","CENTER_NAME":"EARTH","REV_AT_EPOCH":"10015","MEAN_MOTION":"15.06407640","EPHEMERIS_TYPE":"0","MEAN_ANOMALY":"279.1790","REF_FRAME":"TEME","RCS_SIZE":"LARGE","PERIOD":"95.592","ECCENTRICITY":"0.00012870","APOAPSIS":"548.081","SEMIMAJOR_AXIS":"6925.325","OBJECT_NAME":"STARLINK-2357","MEAN_MOTION_DOT":"0.00002982","MEAN_MOTION_DDOT":"0.0000000000000","RA_OF_ASC_NODE":"115.0629","OBJECT_ID":"2021-021AP","ELEMENT_SET_NO":"999","EPOCH":"2022-12-27T16:07:19.417728","TLE_LINE2":"2 47897  53.0547 115.0629 0001287  80.9344 279.1790 15.06407640100156","SITE":"AFETR","INCLINATION":"53.0547","BSTAR":"0.00021898000000","LAUNCH_DATE":"2021-03-14","NORAD_CAT_ID":"47897","ARG_OF_PERICENTER":"80.9344","CLASSIFICATION_TYPE":"U","MEAN_ELEMENT_THEORY":"SGP4","FILE":"3724149","DECAY_DATE":null},{"SEMIMAJOR_AXIS":"6925.327","OBJECT_NAME":"STARLINK-2358","MEAN_MOTION_DDOT":"0.0000000000000","MEAN_MOTION_DOT":"0.00001627","OBJECT_ID":"2021-021AQ","RA_OF_ASC_NODE":"114.7954","SITE":"AFETR","TLE_LINE2":"2 47898  53.0553 114.7954 0001898  59.8245 300.2931 15.06407090 99670","EPOCH":"2022-12-27T17:33:36.153216","ELEMENT_SET_NO":"999","LAUNCH_DATE":"2021-03-14","BSTAR":"0.00012807000000","INCLINATION":"53.0553","NORAD_CAT_ID":"47898","FILE":"3723960","MEAN_ELEMENT_THEORY":"SGP4","DECAY_DATE":null,"CLASSIFICATION_TYPE":"U","ARG_OF_PERICENTER":"59.8245","TLE_LINE1":"1 47898U 21021AQ  22361.73166844  .00001627  00000-0  12807-3 0  9992","GP_ID":"221594966","OBJECT_TYPE":"PAYLOAD","TIME_SYSTEM":"UTC","COUNTRY_CODE":"US","PERIAPSIS":"545.877","MEAN_MOTION":"15.06407090","REV_AT_EPOCH":"9967","CENTER_NAME":"EARTH","REF_FRAME":"TEME","MEAN_ANOMALY":"300.2931","EPHEMERIS_TYPE":"0","PERIOD":"95.592","RCS_SIZE":"LARGE","ECCENTRICITY":"0.00018980","APOAPSIS":"548.506"},{"RCS_SIZE":"LARGE","PERIOD":"95.593","ECCENTRICITY":"0.00017840","APOAPSIS":"548.486","GP_ID":"221595119","OBJECT_TYPE":"PAYLOAD","TIME_SYSTEM":"UTC","TLE_LINE1":"1 47899U 21021AR  22361.59529117 -.00000174  00000-0  72252-5 0  9992","PERIAPSIS":"546.015","COUNTRY_CODE":"US","CENTER_NAME":"EARTH","MEAN_MOTION":"15.06387954","REV_AT_EPOCH":"9980","MEAN_ANOMALY":"310.7410","EPHEMERIS_TYPE":"0","REF_FRAME":"TEME","BSTAR":"0.00000722520000","INCLINATION":"53.0554","LAUNCH_DATE":"2021-03-14","NORAD_CAT_ID":"47899","CLASSIFICATION_TYPE":"U","ARG_OF_PERICENTER":"49.3734","DECAY_DATE":null,"FILE":"3723960","MEAN_ELEMENT_THEORY":"SGP4","SEMIMAJOR_AXIS":"6925.385","OBJECT_NAME":"STARLINK-2359","MEAN_MOTION_DDOT":"0.0000000000000","MEAN_MOTION_DOT":"-0.00000174","RA_OF_ASC_NODE":"105.3842","OBJECT_ID":"2021-021AR","TLE_LINE2":"2 47899  53.0554 105.3842 0001784  49.3734 310.7410 15.06387954 99804","EPOCH":"2022-12-27T14:17:13.157088","SITE":"AFETR","ELEMENT_SET_NO":"999"},{"RCS_SIZE":"LARGE","PERIOD":"95.593","ECCENTRICITY":"0.00016580","APOAPSIS":"548.385","OBJECT_TYPE":"PAYLOAD","GP_ID":"221564079","TIME_SYSTEM":"UTC","TLE_LINE1":"1 47900U 21021AS  22361.35477095  .00001770  00000-0  13771-3 0  9997","COUNTRY_CODE":"US","PERIAPSIS":"546.089","CENTER_NAME":"EARTH","MEAN_MOTION":"15.06392309","REV_AT_EPOCH":"10010","EPHEMERIS_TYPE":"0","MEAN_ANOMALY":"302.3304","REF_FRAME":"TEME","BSTAR":"0.00013771000000","INCLINATION":"53.0554","LAUNCH_DATE":"2021-03-14","NORAD_CAT_ID":"47900","ARG_OF_PERICENTER":"57.7846","CLASSIFICATION_TYPE":"U","FILE":"3723863","MEAN_ELEMENT_THEORY":"SGP4","DECAY_DATE":null,"SEMIMAJOR_AXIS":"6925.372","OBJECT_NAME":"STARLINK-2360","MEAN_MOTION_DOT":"0.00001770","MEAN_MOTION_DDOT":"0.0000000000000","RA_OF_ASC_NODE":"116.4884","OBJECT_ID":"2021-021AS","ELEMENT_SET_NO":"999","TLE_LINE2":"2 47900  53.0554 116.4884 0001658  57.7846 302.3304 15.06392309100108","SITE":"AFETR","EPOCH":"2022-12-27T08:30:52.210080"},{"DECAY_DATE":null,"FILE":"3724149","MEAN_ELEMENT_THEORY":"SGP4","ARG_OF_PERICENTER":"38.1132","CLASSIFICATION_TYPE":"U","NORAD_CAT_ID":"47901","LAUNCH_DATE":"2021-03-14","INCLINATION":"53.0540","BSTAR":"0.00042502000000","ELEMENT_SET_NO":"999","EPOCH":"2022-12-27T15:38:10.622976","TLE_LINE2":"2 47901  53.0540 105.2389 0002032  38.1132 322.0000 15.06416052100270","SITE":"AFETR","OBJECT_ID":"2021-021AT","RA_OF_ASC_NODE":"105.2389","MEAN_MOTION_DOT":"0.00006057","MEAN_MOTION_DDOT":"0.0000000000000","SEMIMAJOR_AXIS":"6925.299","OBJECT_NAME":"STARLINK-2361","APOAPSIS":"548.572","ECCENTRICITY":"0.00020320","PERIOD":"95.591","RCS_SIZE":"LARGE","REF_FRAME":"TEME","EPHEMERIS_TYPE":"0","MEAN_ANOMALY":"322.0000","REV_AT_EPOCH":"10027","MEAN_MOTION":"15.06416052","CENTER_NAME":"EARTH","COUNTRY_CODE":"US","PERIAPSIS":"545.757","TLE_LINE1":"1 47901U 21021AT  22361.65151184  .00006057  00000-0  42502-3 0  9996","GP_ID":"221621081","OBJECT_TYPE":"PAYLOAD","TIME_SYSTEM":"UTC"}];
